ONEWEB-0456             
1 51646U 22012AA  23327.74191313 -.00004454  00000+0 -12807-1 0  9992
2 51646  87.8913 222.2345 0000753  21.7687 338.3473 13.10344380 87997
ONEWEB-0457             
1 51647U 22012AB  23327.71915672  .00000216  00000+0  58158-3 0  9993
2 51647  87.8925 222.2431 0002024  73.9810 286.1540 13.10368700 88007
ONEWEB-0458             
1 51648U 22012AC  23327.20575762 -.00000601  00000+0 -17592-2 0  9996
2 51648  87.8931 222.3582 0001575  63.8906 296.2383 13.10368311 86594
ONEWEB-0461             
1 51649U 22012AD  23327.55492666 -.00000017  00000+0 -77084-4 0  9991
2 51649  87.9222 192.0525 0001890  73.9284 286.2056 13.17652950 90548
ONEWEB-0463             
1 51650U 22012AE  23327.61398017  .00000624  00000+0  15727-2 0  9991
2 51650  87.9227 192.0785 0002168  76.8936 283.2437 13.17647339 90330
ONEWEB-0464             
1 51651U 22012AF  23327.27886163 -.00000578  00000+0 -16931-2 0  9996
2 51651  87.8930 222.3322 0001172  72.1234 288.0022 13.10368820 86627
ONEWEB-0468             
1 51652U 22012AG  23327.20899987 -.00000626  00000+0 -18306-2 0  9990
2 51652  87.8931 222.3392 0001550  68.1901 291.9391 13.10374349 86593
ONEWEB-0473             
1 51653U 22012AH  23327.27074868 -.00000400  00000+0 -11831-2 0  9997
2 51653  87.8930 222.3304 0001512  65.2579 294.8705 13.10367432 86601
